[{"OBJECT_NAME":"GSAT0101 (GALILEO-PFM)","OBJECT_ID":"2011-060A","EPOCH":"2026-03-27T07:30:55.432512","MEAN_MOTION":1.70475647,"ECCENTRICITY":0.00041176,"INCLINATION":57.0197,"RA_OF_ASC_NODE":343.984,"ARG_OF_PERICENTER":13.547,"MEAN_ANOMALY":346.4977,"EPHEMERIS_TYPE":0,"CLASSIFICATION_TYPE":"U","NORAD_CAT_ID":37846,"ELEMENT_SET_NO":999,"REV_AT_EPOCH":8972,"BSTAR":0,"MEAN_MOTION_DOT":-9.7e-7,"MEAN_MOTION_DDOT":0},{"OBJECT_NAME":"GSAT0102 (GALILEO-FM2)","OBJECT_ID":"2011-060B","EPOCH":"2026-03-28T16:54:53.054208","MEAN_MOTION":1.70475653,"ECCENTRICITY":0.0005116,"INCLINATION":57.0201,"RA_OF_ASC_NODE":343.9462,"ARG_OF_PERICENTER":21.556,"MEAN_ANOMALY":158.0911,"EPHEMERIS_TYPE":0,"CLASSIFICATION_TYPE":"U","NORAD_CAT_ID":37847,"ELEMENT_SET_NO":999,"REV_AT_EPOCH":8975,"BSTAR":0,"MEAN_MOTION_DOT":-9.9e-7,"MEAN_MOTION_DDOT":0},{"OBJECT_NAME":"GSAT0103 (GALILEO-FM3)","OBJECT_ID":"2012-055A","EPOCH":"2026-03-27T08:29:07.581408","MEAN_MOTION":1.70473333,"ECCENTRICITY":0.0005825,"INCLINATION":55.7542,"RA_OF_ASC_NODE":103.7894,"ARG_OF_PERICENTER":290.2864,"MEAN_ANOMALY":69.7017,"EPHEMERIS_TYPE":0,"CLASSIFICATION_TYPE":"U","NORAD_CAT_ID":38857,"ELEMENT_SET_NO":999,"REV_AT_EPOCH":8361,"BSTAR":0,"MEAN_MOTION_DOT":3.9e-7,"MEAN_MOTION_DDOT":0},{"OBJECT_NAME":"GSAT0201 (GALILEO 5)","OBJECT_ID":"2014-050A","EPOCH":"2026-03-26T22:51:03.025440","MEAN_MOTION":1.85519926,"ECCENTRICITY":0.1661372,"INCLINATION":48.9652,"RA_OF_ASC_NODE":276.8011,"ARG_OF_PERICENTER":176.1891,"MEAN_ANOMALY":185.2559,"EPHEMERIS_TYPE":0,"CLASSIFICATION_TYPE":"U","NORAD_CAT_ID":40128,"ELEMENT_SET_NO":999,"REV_AT_EPOCH":7679,"BSTAR":0,"MEAN_MOTION_DOT":-4.0e-8,"MEAN_MOTION_DDOT":0},{"OBJECT_NAME":"GSAT0202 (GALILEO 6)","OBJECT_ID":"2014-050B","EPOCH":"2026-03-26T03:07:10.740288","MEAN_MOTION":1.85520606,"ECCENTRICITY":0.16622335,"INCLINATION":48.9839,"RA_OF_ASC_NODE":275.9195,"ARG_OF_PERICENTER":176.8927,"MEAN_ANOMALY":184.2876,"EPHEMERIS_TYPE":0,"CLASSIFICATION_TYPE":"U","NORAD_CAT_ID":40129,"ELEMENT_SET_NO":999,"REV_AT_EPOCH":7894,"BSTAR":0,"MEAN_MOTION_DOT":3.0e-8,"MEAN_MOTION_DDOT":0},{"OBJECT_NAME":"GSAT0203 (GALILEO 7)","OBJECT_ID":"2015-017A","EPOCH":"2026-03-27T16:15:59.650272","MEAN_MOTION":1.70475469,"ECCENTRICITY":0.0003036,"INCLINATION":56.8123,"RA_OF_ASC_NODE":343.8202,"ARG_OF_PERICENTER":318.8222,"MEAN_ANOMALY":41.1887,"EPHEMERIS_TYPE":0,"CLASSIFICATION_TYPE":"U","NORAD_CAT_ID":40544,"ELEMENT_SET_NO":999,"REV_AT_EPOCH":6781,"BSTAR":0,"MEAN_MOTION_DOT":-9.7e-7,"MEAN_MOTION_DDOT":0},{"OBJECT_NAME":"GSAT0204 (GALILEO 8)","OBJECT_ID":"2015-017B","EPOCH":"2026-03-27T08:19:21.027360","MEAN_MOTION":1.70475336,"ECCENTRICITY":0.00033144,"INCLINATION":56.8192,"RA_OF_ASC_NODE":343.847,"ARG_OF_PERICENTER":290.4029,"MEAN_ANOMALY":69.5952,"EPHEMERIS_TYPE":0,"CLASSIFICATION_TYPE":"U","NORAD_CAT_ID":40545,"ELEMENT_SET_NO":999,"REV_AT_EPOCH":3085,"BSTAR":0,"MEAN_MOTION_DOT":-9.7e-7,"MEAN_MOTION_DDOT":0},{"OBJECT_NAME":"GSAT0205 (GALILEO 9)","OBJECT_ID":"2015-045A","EPOCH":"2026-03-27T08:44:09.530016","MEAN_MOTION":1.67410754,"ECCENTRICITY":0.0004152,"INCLINATION":54.9729,"RA_OF_ASC_NODE":223.9518,"ARG_OF_PERICENTER":269.7313,"MEAN_ANOMALY":90.1696,"EPHEMERIS_TYPE":0,"CLASSIFICATION_TYPE":"U","NORAD_CAT_ID":40889,"ELEMENT_SET_NO":999,"REV_AT_EPOCH":6559,"BSTAR":0,"MEAN_MOTION_DOT":-1.1e-7,"MEAN_MOTION_DDOT":0},{"OBJECT_NAME":"GSAT0206 (GALILEO 10)","OBJECT_ID":"2015-045B","EPOCH":"2026-03-27T22:07:45.754176","MEAN_MOTION":1.70473776,"ECCENTRICITY":0.0003014,"INCLINATION":54.972,"RA_OF_ASC_NODE":223.8461,"ARG_OF_PERICENTER":48.8202,"MEAN_ANOMALY":311.153,"EPHEMERIS_TYPE":0,"CLASSIFICATION_TYPE":"U","NORAD_CAT_ID":40890,"ELEMENT_SET_NO":999,"REV_AT_EPOCH":6565,"BSTAR":0,"MEAN_MOTION_DOT":-1.6e-7,"MEAN_MOTION_DDOT":0},{"OBJECT_NAME":"GSAT0209 (GALILEO 12)","OBJECT_ID":"2015-079A","EPOCH":"2026-03-28T02:09:49.627872","MEAN_MOTION":1.70474268,"ECCENTRICITY":0.00053639,"INCLINATION":55.7756,"RA_OF_ASC_NODE":103.4845,"ARG_OF_PERICENTER":324.7749,"MEAN_ANOMALY":35.2418,"EPHEMERIS_TYPE":0,"CLASSIFICATION_TYPE":"U","NORAD_CAT_ID":41174,"ELEMENT_SET_NO":999,"REV_AT_EPOCH":6339,"BSTAR":0,"MEAN_MOTION_DOT":4.1e-7,"MEAN_MOTION_DDOT":0},{"OBJECT_NAME":"GSAT0208 (GALILEO 11)","OBJECT_ID":"2015-079B","EPOCH":"2026-03-28T07:26:58.508160","MEAN_MOTION":1.70474153,"ECCENTRICITY":0.00048623,"INCLINATION":55.7736,"RA_OF_ASC_NODE":103.4753,"ARG_OF_PERICENTER":326.1206,"MEAN_ANOMALY":33.901,"EPHEMERIS_TYPE":0,"CLASSIFICATION_TYPE":"U","NORAD_CAT_ID":41175,"ELEMENT_SET_NO":999,"REV_AT_EPOCH":6381,"BSTAR":0,"MEAN_MOTION_DOT":4.2e-7,"MEAN_MOTION_DDOT":0},{"OBJECT_NAME":"GSAT0211 (GALILEO 14)","OBJECT_ID":"2016-030A","EPOCH":"2026-03-27T20:20:51.135648","MEAN_MOTION":1.70473902,"ECCENTRICITY":0.00030274,"INCLINATION":55.1222,"RA_OF_ASC_NODE":223.9297,"ARG_OF_PERICENTER":18.1834,"MEAN_ANOMALY":341.7749,"EPHEMERIS_TYPE":0,"CLASSIFICATION_TYPE":"U","NORAD_CAT_ID":41549,"ELEMENT_SET_NO":999,"REV_AT_EPOCH":6128,"BSTAR":0,"MEAN_MOTION_DOT":-1.5e-7,"MEAN_MOTION_DDOT":0},{"OBJECT_NAME":"GSAT0210 (GALILEO 13)","OBJECT_ID":"2016-030B","EPOCH":"2026-03-27T12:26:38.685120","MEAN_MOTION":1.70473922,"ECCENTRICITY":0.00018137,"INCLINATION":55.1217,"RA_OF_ASC_NODE":223.9368,"ARG_OF_PERICENTER":210.8159,"MEAN_ANOMALY":149.1228,"EPHEMERIS_TYPE":0,"CLASSIFICATION_TYPE":"U","NORAD_CAT_ID":41550,"ELEMENT_SET_NO":999,"REV_AT_EPOCH":6127,"BSTAR":0,"MEAN_MOTION_DOT":-1.2e-7,"MEAN_MOTION_DDOT":0},{"OBJECT_NAME":"GSAT0207 (GALILEO 15)","OBJECT_ID":"2016-069A","EPOCH":"2026-03-27T19:07:26.359968","MEAN_MOTION":1.70474198,"ECCENTRICITY":0.0005689,"INCLINATION":55.446,"RA_OF_ASC_NODE":103.3365,"ARG_OF_PERICENTER":312.3228,"MEAN_ANOMALY":47.6802,"EPHEMERIS_TYPE":0,"CLASSIFICATION_TYPE":"U","NORAD_CAT_ID":41859,"ELEMENT_SET_NO":999,"REV_AT_EPOCH":5801,"BSTAR":0,"MEAN_MOTION_DOT":3.9e-7,"MEAN_MOTION_DDOT":0},{"OBJECT_NAME":"GSAT0212 (GALILEO 16)","OBJECT_ID":"2016-069B","EPOCH":"2026-03-28T19:45:52.580736","MEAN_MOTION":1.70474393,"ECCENTRICITY":0.00042783,"INCLINATION":55.4444,"RA_OF_ASC_NODE":103.3032,"ARG_OF_PERICENTER":336.2015,"MEAN_ANOMALY":23.8319,"EPHEMERIS_TYPE":0,"CLASSIFICATION_TYPE":"U","NORAD_CAT_ID":41860,"ELEMENT_SET_NO":999,"REV_AT_EPOCH":5828,"BSTAR":0,"MEAN_MOTION_DOT":4.2e-7,"MEAN_MOTION_DDOT":0},{"OBJECT_NAME":"GSAT0213 (GALILEO 17)","OBJECT_ID":"2016-069C","EPOCH":"2026-03-26T20:16:12.674496","MEAN_MOTION":1.70474648,"ECCENTRICITY":0.0005734,"INCLINATION":55.4449,"RA_OF_ASC_NODE":103.3658,"ARG_OF_PERICENTER":297.2228,"MEAN_ANOMALY":62.7676,"EPHEMERIS_TYPE":0,"CLASSIFICATION_TYPE":"U","NORAD_CAT_ID":41861,"ELEMENT_SET_NO":999,"REV_AT_EPOCH":5811,"BSTAR":0,"MEAN_MOTION_DOT":3.6e-7,"MEAN_MOTION_DDOT":0},{"OBJECT_NAME":"GSAT0214 (GALILEO 18)","OBJECT_ID":"2016-069D","EPOCH":"2026-03-28T03:55:55.768224","MEAN_MOTION":1.70474482,"ECCENTRICITY":0.0004756,"INCLINATION":55.4445,"RA_OF_ASC_NODE":103.322,"ARG_OF_PERICENTER":301.5492,"MEAN_ANOMALY":58.4564,"EPHEMERIS_TYPE":0,"CLASSIFICATION_TYPE":"U","NORAD_CAT_ID":41862,"ELEMENT_SET_NO":999,"REV_AT_EPOCH":5826,"BSTAR":0,"MEAN_MOTION_DOT":4.0e-7,"MEAN_MOTION_DDOT":0}]
